RAVAN                   
1 41849U 16067B   19011.83247232  .00000006  00000-0  56748-5 0  9990
2 41849  97.9225 108.6745 0008258 177.5063 182.6201 14.98062346118367
CELTEE 1                
1 41850U 16067C   19011.78928767  .00000133  00000-0  16910-4 0  9992
2 41850  97.9181 107.6819 0008911 181.7789 178.3402 14.96924587118300
OPTICUBE 04             
1 41851U 16067D   19012.24511996 -.00000316  00000-0 -22351-4 0  9998
2 41851  97.9179 107.9935 0008779 182.0323 178.0863 14.96747560118368
AEROCUBE 8D             
1 41852U 16067E   19011.90204162 -.00000353  00000-0 -25609-4 0  9995
2 41852  97.9198 107.4746 0009456 182.9471 177.1695 14.96622864118295
AEROCUBE 8C             
1 41853U 16067F   19011.78748077  .00000148  00000-0  18358-4 0  9993
2 41853  97.9189 107.3067 0010045 185.4276 174.6838 14.96582697118276
PROMETHEUS 2-1          
1 41854U 16067G   19011.84187742 -.00000126  00000-0 -57365-5 0  9997
2 41854  97.9199 107.4327 0010215 185.3374 174.7740 14.96753518118281
PROMETHEUS 2-3          
1 41855U 16067H   19012.17886335 -.00000041  00000-0  17095-5 0  9990
2 41855  97.9200 107.7839 0010469 184.7815 175.3308 14.96753684118337
INS-1B                  
1 41954U 17008G   19011.75556103  .00000997  00000-0  44690-4 0  9995
2 41954  97.4215  78.7309 0008848 351.2692   8.8389 15.23538764105751
BGUSAT                  
1 41999U 17008BD  19011.94983719  .00001480  00000-0  61391-4 0  9997
2 41999  97.4272  80.6713 0008130   7.5479 352.5880 15.25444478105241
DIDO-2                  
1 42000U 17008BE  19011.74570072  .00000766  00000-0  34969-4 0  9990
2 42000  97.4231  79.2373 0008698  11.0925 349.0502 15.23601868105159
PEASSS                  
1 42015U 17008BV  19011.93632649  .00000829  00000-0  36616-4 0  9997
2 42015  97.4232  80.1504 0006775  20.1042 340.0461 15.24489563105712
AL-FARABI 1             
1 42016U 17008BW  19012.06094198  .00001054  00000-0  45079-4 0  9998
2 42016  97.4244  80.6478 0006599  19.5794 340.5696 15.25025490105879
NAYIF-1 (EO-88)         
1 42017U 17008BX  19011.85478932  .00001098  00000-0  46804-4 0  9992
2 42017  97.4241  80.4521 0006604  20.5658 339.5844 15.25053672105867
HAVELSAT                
1 42700U 98067LH  19012.21151306  .00110765  15857-4  31360-3 0  9991
2 42700  51.6245 352.7426 0003452  53.6007 306.5318 15.93267427 95053
CXBN-2                  
1 42704U 98067LM  19012.17528862  .00107009  15494-4  31492-3 0  9995
2 42704  51.6284 354.8337 0002553  71.9435 288.1849 15.92556070 94948
PHOENIX                 
1 42706U 98067LP  19012.20481388  .00037705  00000-0  19022-3 0  9995
2 42706  51.6288   2.6523 0000793  45.0973 315.0093 15.81233313 94831
X-CUBESAT               
1 42707U 98067LQ  19012.18007887  .00218926  31432-4  40129-3 0  9996
2 42707  51.6235 349.3757 0003743  87.8132 272.3306 16.00855323 94995
QBEE50-LTU-OC           
1 42708U 98067LR  19012.18093255  .00112941  16018-4  32393-3 0  9998
2 42708  51.6254 354.0657 0003059  70.7295 289.4042 15.93012425 94894
ALTAIR PATHFINDER       
1 42711U 98067LS  19012.17327242  .00017006  00000-0  13530-3 0  9995
2 42711  51.6345  20.6293 0002050 265.4769  94.5994 15.71339160 94255
SHARC                   
1 42712U 98067LT  19012.16638548  .00044483  00000-0  25865-3 0  9992
2 42712  51.6339  18.3661 0001715  13.6985 346.4062 15.78020443 94525
ZA-AEROSAT              
1 42713U 98067LU  19012.17687820  .00035039  00000-0  19066-3 0  9994
2 42713  51.6352   7.7726 0000509 348.1015  11.9974 15.79612163 94427
CSUNSAT 1               
1 42715U 98067LW  19012.22569168  .00043388  00000-0  21268-3 0  9999
2 42715  51.6330   5.0892 0000873 313.9532  46.1398 15.81790362 94463
SPACECUBE               
1 42717U 98067LY  19011.41560677  .00099760  14924-4  29684-3 0  9996
2 42717  51.6206 358.5997 0003585  52.3342 307.7989 15.92383082 93847
NJUST-1                 
1 42722U 98067MB  19012.19503975  .00028404  00000-0  17419-3 0  9992
2 42722  51.6402  11.5216 0003110 335.8384 109.9527 15.77046298 93444
LILACSAT-1              
1 42725U 98067ME  19012.17532752  .00069735  00000-0  27026-3 0  9995
2 42725  51.6355   1.5252 0002614  24.6593  60.1762 15.86538109 93486
NSIGHT-1                
1 42726U 98067MF  19012.19258094  .00007589  00000-0  79062-4 0  9999
2 42726  51.6390  30.6765 0004358 305.1636  54.8951 15.65682479 93106
SNUSAT-1                
1 42727U 98067MG  19012.19127622  .00067287  00000-0  26800-3 0  9994
2 42727  51.6304   1.7126 0001878 334.1894  25.9016 15.85990730 93446
POLYITAN-2-SAU          
1 42732U 98067MM  19012.16776595  .00203363  28513-4  38585-3 0  9999
2 42732  51.6261 350.8884 0002777  90.9724 269.1605 16.00284983 93474
SNUSAT-1B               
1 42733U 98067MN  19012.21914362  .00083285  00000-0  28083-3 0  9990
2 42733  51.6272 358.1089 0001027   6.0268 354.0750 15.89286602 93384
BEEAGLESAT              
1 42736U 98067MR  19012.21663199  .00051039  00000-0  23639-3 0  9996
2 42736  51.6312   4.2041 0003285 343.9811  16.1088 15.82932073 93365
UCLSAT                  
1 42765U 17036A   19011.87048143  .00000912  00000-0  42458-4 0  9997
2 42765  97.3746  73.0899 0013151  68.1726 292.0908 15.22352705 87040
LITUANICASAT-2          
1 42768U 17036D   19011.90723920  .00001422  00000-0  64794-4 0  9991
2 42768  97.3772  72.6800 0016693  58.4628 301.8237 15.22168517 86304
AALTO-1                 
1 42775U 17036L   19011.79129693  .00000628  00000-0  31267-4 0  9999
2 42775  97.3735  72.1052 0015501  58.0710 302.2031 15.21075261 86208
URSA MAIOR              
1 42776U 17036M   19011.89632041  .00000598  00000-0  29832-4 0  9998
2 42776  97.3742  72.3086 0015301  57.8901 302.3817 15.21189706 86228
COMPASS 2               
1 42777U 17036N   19011.94196684  .00001112  00000-0  51086-4 0  9992
2 42777  97.3773  73.1385 0014086  60.1769 300.0866 15.22382125 86266
DIAMOND RED             
1 42783U 17036U   19011.73128709  .00000763  00000-0  36523-4 0  9999
2 42783  97.3747  72.6758 0013812  68.8210 291.4500 15.21875923 86220
PEGASUS                 
1 42784U 17036V   19011.67283520  .00000895  00000-0  41977-4 0  9991
2 42784  97.3749  72.7661 0013717  68.8656 291.4045 15.22129715 86221
DIAMOND GREEN           
1 42785U 17036W   19011.73007018  .00000752  00000-0  36040-4 0  9992
2 42785  97.3748  72.6938 0013716  69.4440 290.8266 15.21875761 86297
DIAMOND BLUE            
1 42786U 17036X   19011.92633904  .00000702  00000-0  33825-4 0  9996
2 42786  97.3748  72.8857 0013543  69.0568 291.2116 15.21876614 86326
NUDTSAT                 
1 42787U 17036Y   19011.95807100  .00001446  00000-0  64518-4 0  9990
2 42787  97.3784  73.4893 0013404  60.5094 299.7478 15.22918559 86139
SUCHAI                  
1 42788U 17036Z   19011.71934181  .00001037  00000-0  47691-4 0  9994
2 42788  97.3752  73.0124 0013297  68.4418 291.8235 15.22478397 86310
SKCUBE                  
1 42789U 17036AA  19011.72629099  .00000978  00000-0  45235-4 0  9990
2 42789  97.3749  72.9897 0013144  68.4800 291.7837 15.22406641 86239
VZLUSAT-1               
1 42790U 17036AB  19011.74829542  .00001295  00000-0  58069-4 0  9991
2 42790  97.3760  73.2859 0012713  68.3035 291.9554 15.22926755 86259
ROBUSTA-1B              
1 42792U 17036AD  19011.73969975  .00000989  00000-0  45522-4 0  9996
2 42792  97.3749  73.1111 0012736  69.3474 290.9127 15.22565627 86253
CICERO 6                
1 42793U 17036AE  19011.69874134  .00000704  00000-0  33563-4 0  9991
2 42793  97.3736  72.9695 0011972  70.9154 289.3378 15.22282632 86317
D-SAT                   
1 42794U 17036AF  19011.90095406  .00000116  00000-0  15822-4 0  9998
2 42794  97.5637  63.3423 0125552 307.8515  51.1396 14.91001603 84827
TOKI                    
1 42820U 98067MU  19011.36025587  .00046310  00000-0  23150-3 0  9992
2 42820  51.6324  12.7810 0000775  17.7670 342.3359 15.81336536 86638
MAZAALAI (NUMSAT-1)     
1 42822U 98067MW  19012.21472945  .00040790  00000-0  21192-3 0  9993
2 42822  51.6338   9.5154 0000959 351.0043   9.0941 15.80554517 86737
BRAC ONNESHA            
1 42823U 98067MX  19011.42412015  .00045234  00000-0  23050-3 0  9991
2 42823  51.6312  13.2398 0001734 301.3550  58.7282 15.80929421 86611
NIGERIAEDUSAT-1         
1 42824U 98067MY  19012.19156516  .00042212  00000-0  22126-3 0  9994
2 42824  51.6349  10.1696 0002148 312.2056  47.8764 15.80343477 86717
CORVUS BC2              
1 42846U 17042X   19012.20242296  .00000282  00000-0  33203-4 0  9995
2 42846  97.5820 272.3134 0008688 212.9239 147.1440 14.91908915 81532
CORVUS BC1              
1 42847U 17042Y   19011.76380554 -.00000032  00000-0  21361-5 0  9993
2 42847  97.5821 271.9724 0008298 213.4433 146.6263 14.92008568 81468
SILU-1 (SILKROAD 1)     
1 42903U 17021F   19012.21980093  .00061142  00000-0  22446-3 0  9999
2 42903  42.7718 130.1758 0016682 348.2412  85.5977 15.87188095 82958
MIRATA                  
1 43015U 17073C   19011.75701794  .00001237  00000-0  10292-3 0  9993
2 43015  97.7165 299.1793 0255701 312.5807  45.4078 14.78636988 61955
MAKERSAT 0              
1 43016U 17073D   19011.75041794  .00000902  00000-0  76462-4 0  9991
2 43016  97.7196 299.3510 0257453 312.7541  45.2261 14.78491019 61947
ASTERIA                 
1 43020U 98067NH  19012.06628483  .00013843  00000-0  14559-3 0  9995
2 43020  51.6423  41.1918 0001408 242.1365 117.9487 15.64621190 65139
DELLINGR (RBLE)         
1 43021U 98067NJ  19012.17358165  .00005622  00000-0  73175-4 0  9991
2 43021  51.6398  46.3381 0001626 220.2552 139.8321 15.60453873 65079
OSIRIS-3U               
1 43027U 98067NL  19012.19940871  .00099565  00000-0  40382-3 0  9992
2 43027  51.6357  20.0430 0002057  47.6274 312.4904 15.85464059 65302
AEROCUBE 7B             
1 43042U 17071F   19011.75407305  .00002318  00000-0  66771-4 0  9997
2 43042  51.6389 104.4662 0004419 306.2671  53.7905 15.40157062 61730
